CCSDS_OMM_VERS = 2.0
CREATION_DATE  = 
ORIGINATOR     = 

OBJECT_NAME    = SL-4 R/B
OBJECT_ID      = 2014-021B
CENTER_NAME    = EARTH
REF_FRAME      = TEME
TIME_SYSTEM    = UTC
MEAN_ELEMENT_THEORY = SGP/SGP4

EPOCH          = 2025-12-30T04:08:01.748544
MEAN_MOTION    = 15.37101769
ECCENTRICITY   = .01003501
INCLINATION    = 51.6082
RA_OF_ASC_NODE = 315.8491
ARG_OF_PERICENTER = 209.1816
MEAN_ANOMALY   = 150.3538

EPHEMERIS_TYPE = 0
CLASSIFICATION_TYPE = U
NORAD_CAT_ID   = 39679
ELEMENT_SET_NO = 999
REV_AT_EPOCH   = 64557
BSTAR          = .36813618E-3
MEAN_MOTION_DOT = .15697E-3
MEAN_MOTION_DDOT = 0

CCSDS_OMM_VERS = 2.0
CREATION_DATE  = 
ORIGINATOR     = 

OBJECT_NAME    = ALOS-2
OBJECT_ID      = 2014-029A
CENTER_NAME    = EARTH
REF_FRAME      = TEME
TIME_SYSTEM    = UTC
MEAN_ELEMENT_THEORY = SGP/SGP4

EPOCH          = 2025-12-30T06:14:19.335264
MEAN_MOTION    = 14.79486443
ECCENTRICITY   = .00013653
INCLINATION    = 97.9212
RA_OF_ASC_NODE = 98.8560
ARG_OF_PERICENTER = 100.2685
MEAN_ANOMALY   = 259.8680

EPHEMERIS_TYPE = 0
CLASSIFICATION_TYPE = U
NORAD_CAT_ID   = 39766
ELEMENT_SET_NO = 999
REV_AT_EPOCH   = 62660
BSTAR          = .41348745E-3
MEAN_MOTION_DOT = .3039E-4
MEAN_MOTION_DDOT = 0

CCSDS_OMM_VERS = 2.0
CREATION_DATE  = 
ORIGINATOR     = 

OBJECT_NAME    = YAOGAN-29
OBJECT_ID      = 2015-069A
CENTER_NAME    = EARTH
REF_FRAME      = TEME
TIME_SYSTEM    = UTC
MEAN_ELEMENT_THEORY = SGP/SGP4

EPOCH          = 2025-12-30T07:06:24.704928
MEAN_MOTION    = 14.82904222
ECCENTRICITY   = .00012899
INCLINATION    = 98.0213
RA_OF_ASC_NODE = 27.5233
ARG_OF_PERICENTER = 154.2833
MEAN_ANOMALY   = 205.8445

EPHEMERIS_TYPE = 0
CLASSIFICATION_TYPE = U
NORAD_CAT_ID   = 41038
ELEMENT_SET_NO = 999
REV_AT_EPOCH   = 54559
BSTAR          = .16085508E-3
MEAN_MOTION_DOT = .125E-4
MEAN_MOTION_DDOT = 0

CCSDS_OMM_VERS = 2.0
CREATION_DATE  = 
ORIGINATOR     = 

OBJECT_NAME    = ASTRO-H (HITOMI)
OBJECT_ID      = 2016-012A
CENTER_NAME    = EARTH
REF_FRAME      = TEME
TIME_SYSTEM    = UTC
MEAN_ELEMENT_THEORY = SGP/SGP4

EPOCH          = 2025-12-28T22:59:21.708960
MEAN_MOTION    = 15.09466005
ECCENTRICITY   = .0009652
INCLINATION    = 30.9996
RA_OF_ASC_NODE = 92.8074
ARG_OF_PERICENTER = 341.3453
MEAN_ANOMALY   = 18.6831

EPHEMERIS_TYPE = 0
CLASSIFICATION_TYPE = U
NORAD_CAT_ID   = 41337
ELEMENT_SET_NO = 999
REV_AT_EPOCH   = 54153
BSTAR          = .32727471E-3
MEAN_MOTION_DOT = .5469E-4
MEAN_MOTION_DDOT = 0

CCSDS_OMM_VERS = 2.0
CREATION_DATE  = 
ORIGINATOR     = 

OBJECT_NAME    = HXMT (HUIYAN)
OBJECT_ID      = 2017-034A
CENTER_NAME    = EARTH
REF_FRAME      = TEME
TIME_SYSTEM    = UTC
MEAN_ELEMENT_THEORY = SGP/SGP4

EPOCH          = 2025-12-30T07:30:17.136576
MEAN_MOTION    = 15.16469830
ECCENTRICITY   = .00318128
INCLINATION    = 43.0153
RA_OF_ASC_NODE = 42.0979
ARG_OF_PERICENTER = 158.2999
MEAN_ANOMALY   = 201.9204

EPHEMERIS_TYPE = 0
CLASSIFICATION_TYPE = U
NORAD_CAT_ID   = 42758
ELEMENT_SET_NO = 999
REV_AT_EPOCH   = 47200
BSTAR          = .5400526E-3
MEAN_MOTION_DOT = .10616E-3
MEAN_MOTION_DDOT = 0

CCSDS_OMM_VERS = 2.0
CREATION_DATE  = 
ORIGINATOR     = 

OBJECT_NAME    = CZ-2C R/B
OBJECT_ID      = 2018-054D
CENTER_NAME    = EARTH
REF_FRAME      = TEME
TIME_SYSTEM    = UTC
MEAN_ELEMENT_THEORY = SGP/SGP4

EPOCH          = 2025-12-30T05:13:41.549664
MEAN_MOTION    = 15.78151858
ECCENTRICITY   = .00134822
INCLINATION    = 35.1328
RA_OF_ASC_NODE = 62.0402
ARG_OF_PERICENTER = 317.3491
MEAN_ANOMALY   = 42.6196

EPHEMERIS_TYPE = 0
CLASSIFICATION_TYPE = U
NORAD_CAT_ID   = 43521
ELEMENT_SET_NO = 999
REV_AT_EPOCH   = 41781
BSTAR          = .8923161E-3
MEAN_MOTION_DOT = .162398E-2
MEAN_MOTION_DDOT = 0

CCSDS_OMM_VERS = 2.0
CREATION_DATE  = 
ORIGINATOR     = 

OBJECT_NAME    = SAOCOM 1A
OBJECT_ID      = 2018-076A
CENTER_NAME    = EARTH
REF_FRAME      = TEME
TIME_SYSTEM    = UTC
MEAN_ELEMENT_THEORY = SGP/SGP4

EPOCH          = 2025-12-30T07:00:44.495424
MEAN_MOTION    = 14.82153319
ECCENTRICITY   = .00014338
INCLINATION    = 97.8850
RA_OF_ASC_NODE = 188.4581
ARG_OF_PERICENTER = 82.9698
MEAN_ANOMALY   = 277.1678

EPHEMERIS_TYPE = 0
CLASSIFICATION_TYPE = U
NORAD_CAT_ID   = 43641
ELEMENT_SET_NO = 999
REV_AT_EPOCH   = 39108
BSTAR          = .29231798E-4
MEAN_MOTION_DOT = .181E-5
MEAN_MOTION_DDOT = 0

CCSDS_OMM_VERS = 2.0
CREATION_DATE  = 
ORIGINATOR     = 

OBJECT_NAME    = H-2A R/B
OBJECT_ID      = 2018-084L
CENTER_NAME    = EARTH
REF_FRAME      = TEME
TIME_SYSTEM    = UTC
MEAN_ELEMENT_THEORY = SGP/SGP4

EPOCH          = 2025-12-30T03:10:13.735488
MEAN_MOTION    = 15.38071679
ECCENTRICITY   = .00262013
INCLINATION    = 98.8770
RA_OF_ASC_NODE = 201.8248
ARG_OF_PERICENTER = 265.2620
MEAN_ANOMALY   = 94.5628

EPHEMERIS_TYPE = 0
CLASSIFICATION_TYPE = U
NORAD_CAT_ID   = 43682
ELEMENT_SET_NO = 999
REV_AT_EPOCH   = 39507
BSTAR          = .74290841E-3
MEAN_MOTION_DOT = .28125E-3
MEAN_MOTION_DDOT = 0

CCSDS_OMM_VERS = 2.0
CREATION_DATE  = 
ORIGINATOR     = 

OBJECT_NAME    = SAOCOM 1B
OBJECT_ID      = 2020-059A
CENTER_NAME    = EARTH
REF_FRAME      = TEME
TIME_SYSTEM    = UTC
MEAN_ELEMENT_THEORY = SGP/SGP4

EPOCH          = 2025-12-30T07:45:44.063424
MEAN_MOTION    = 14.82156637
ECCENTRICITY   = .00014129
INCLINATION    = 97.8845
RA_OF_ASC_NODE = 187.5885
ARG_OF_PERICENTER = 84.9648
MEAN_ANOMALY   = 275.1726

EPHEMERIS_TYPE = 0
CLASSIFICATION_TYPE = U
NORAD_CAT_ID   = 46265
ELEMENT_SET_NO = 999
REV_AT_EPOCH   = 28847
BSTAR          = .51807254E-4
MEAN_MOTION_DOT = .36E-5
MEAN_MOTION_DDOT = 0

CCSDS_OMM_VERS = 2.0
CREATION_DATE  = 
ORIGINATOR     = 

OBJECT_NAME    = CSS (TIANHE)
OBJECT_ID      = 2021-035A
CENTER_NAME    = EARTH
REF_FRAME      = TEME
TIME_SYSTEM    = UTC
MEAN_ELEMENT_THEORY = SGP/SGP4

EPOCH          = 2025-12-30T03:11:40.380000
MEAN_MOTION    = 15.59892918
ECCENTRICITY   = .0009498
INCLINATION    = 41.4672
RA_OF_ASC_NODE = 271.0575
ARG_OF_PERICENTER = 180.1911
MEAN_ANOMALY   = 179.8925

EPHEMERIS_TYPE = 0
CLASSIFICATION_TYPE = U
NORAD_CAT_ID   = 48274
ELEMENT_SET_NO = 999
REV_AT_EPOCH   = 26674
BSTAR          = .31260929E-3
MEAN_MOTION_DOT = .25691E-3
MEAN_MOTION_DDOT = 0

CCSDS_OMM_VERS = 2.0
CREATION_DATE  = 
ORIGINATOR     = 

OBJECT_NAME    = COSMOS 2550
OBJECT_ID      = 2021-056A
CENTER_NAME    = EARTH
REF_FRAME      = TEME
TIME_SYSTEM    = UTC
MEAN_ELEMENT_THEORY = SGP/SGP4

EPOCH          = 2025-12-30T06:24:18.986688
MEAN_MOTION    = 15.33828469
ECCENTRICITY   = .00083471
INCLINATION    = 67.1444
RA_OF_ASC_NODE = 250.9194
ARG_OF_PERICENTER = 269.2837
MEAN_ANOMALY   = 90.7361

EPHEMERIS_TYPE = 0
CLASSIFICATION_TYPE = U
NORAD_CAT_ID   = 48865
ELEMENT_SET_NO = 999
REV_AT_EPOCH   = 25281
BSTAR          = .1607639E-5
MEAN_MOTION_DOT = -.139E-5
MEAN_MOTION_DDOT = 0

CCSDS_OMM_VERS = 2.0
CREATION_DATE  = 
ORIGINATOR     = 

OBJECT_NAME    = CZ-2C R/B
OBJECT_ID      = 2022-058K
CENTER_NAME    = EARTH
REF_FRAME      = TEME
TIME_SYSTEM    = UTC
MEAN_ELEMENT_THEORY = SGP/SGP4

EPOCH          = 2025-12-29T21:40:08.226336
MEAN_MOTION    = 15.49471113
ECCENTRICITY   = .00441701
INCLINATION    = 50.1915
RA_OF_ASC_NODE = 315.9656
ARG_OF_PERICENTER = 268.9961
MEAN_ANOMALY   = 90.5947

EPHEMERIS_TYPE = 0
CLASSIFICATION_TYPE = U
NORAD_CAT_ID   = 52794
ELEMENT_SET_NO = 999
REV_AT_EPOCH   = 19929
BSTAR          = .75172006E-3
MEAN_MOTION_DOT = .43626E-3
MEAN_MOTION_DDOT = 0

