SL-4 R/B                
1 39679U 14021B   25364.17224246  .00015697  00000+0  36814-3 0  9992
2 39679  51.6082 315.8491 0100350 209.1816 150.3538 15.37101769645577
ALOS-2                  
1 39766U 14029A   25364.25994601  .00003039  00000+0  41349-3 0  9991
2 39766  97.9212  98.8560 0001365 100.2685 259.8680 14.79486443626604
YAOGAN-29               
1 41038U 15069A   25364.29611927  .00001250  00000+0  16086-3 0  9995
2 41038  98.0213  27.5233 0001289 154.2833 205.8445 14.82904222545599
ASTRO-H (HITOMI)        
1 41337U 16012A   25362.95789015  .00005469  00000+0  32727-3 0  9997
2 41337  30.9996  92.8074 0009652 341.3453  18.6831 15.09466005541532
HXMT (HUIYAN)           
1 42758U 17034A   25364.31269834  .00010616  00000+0  54005-3 0  9997
2 42758  43.0153  42.0979 0031812 158.2999 201.9204 15.16469830472007
CZ-2C R/B               
1 43521U 18054D   25364.21784201  .00162398  00000+0  89232-3 0  9993
2 43521  35.1328  62.0402 0013482 317.3491  42.6196 15.78151858417817
SAOCOM 1A               
1 43641U 18076A   25364.29218166  .00000181  00000+0  29232-4 0  9996
2 43641  97.8850 188.4581 0001433  82.9698 277.1678 14.82153319391081
H-2A R/B                
1 43682U 18084L   25364.13210342  .00028125  00000+0  74291-3 0  9993
2 43682  98.8770 201.8248 0026201 265.2620  94.5628 15.38071679395078
SAOCOM 1B               
1 46265U 20059A   25364.32342666  .00000360  00000+0  51807-4 0  9994
2 46265  97.8845 187.5885 0001412  84.9648 275.1726 14.82156637288477
CSS (TIANHE)            
1 48274U 21035A   25364.13310625  .00025691  00000+0  31261-3 0  9995
2 48274  41.4672 271.0575 0009498 180.1911 179.8925 15.59892918266742
COSMOS 2550             
1 48865U 21056A   25364.26688642 -.00000139  00000+0  16076-5 0  9995
2 48865  67.1444 250.9194 0008347 269.2837  90.7361 15.33828469252811
CZ-2C R/B               
1 52794U 22058K   25363.90287299  .00043626  00000+0  75172-3 0  9994
2 52794  50.1915 315.9656 0044170 268.9961  90.5947 15.49471113199292
